KUIPER-00186            
1 67140U 25301H   26007.80872344  .00024004  00000+0  68905-3 0  9990
2 67140  51.8693 359.4634 0007893 168.3925 191.7244 15.35700795  4371
KUIPER-00187            
1 67141U 25301J   26007.79771668  .00014108  00000+0  40272-3 0  9997
2 67141  51.8711 359.3955 0004935 153.7098 206.4139 15.36280141  4377
KUIPER-00188            
1 67142U 25301K   26007.81015921  .00014100  00000+0  41172-3 0  9996
2 67142  51.8706 359.4741 0007586 174.0899 186.0177 15.35556295  4376
KUIPER-00191            
1 67143U 25301L   26007.80731354  .00024684  00000+0  70806-3 0  9995
2 67143  51.8681 359.4538 0006624 167.7185 192.3964 15.35714944  4407
KUIPER-00196            
1 67144U 25301M   26007.79502134  .00024549  00000+0  68770-3 0  9993
2 67144  51.8727 359.3777 0003873 130.8346 229.2976 15.36471541  4379
KUIPER-00204            
1 67145U 25301N   26007.83335648 -.01022755  00000+0 -36148-1 0  9995
2 67145  51.8774 359.2001 0004654 106.7438  86.2884 15.31334875  4487
KUIPER-00210            
1 67146U 25301P   26007.82168624  .00018377  00000+0  54718-3 0  9990
2 67146  51.8619 359.5351 0010467 190.2734 169.8039 15.34701902  4542
KUIPER-00221            
1 67147U 25301Q   26007.79918541  .00013452  00000+0  38529-3 0  9999
2 67147  51.8719 359.4049 0004992 150.0401 210.0871 15.36218488  4376
