<?xml version="1.0" encoding="UTF-8"?>
<ndm xmlns:xsi="http://www.w3.org/2001/XMLSchema-instance" xsi:noNamespaceSchemaLocation="https://sanaregistry.org/r/ndmxml_unqualified/ndmxml-2.0.0-master-2.0.xsd">
<omm id="CCSDS_OMM_VERS" version="2.0">
<header><CREATION_DATE/><ORIGINATOR/></header><body><segment><metadata><OBJECT_NAME>KUIPER-00186</OBJECT_NAME><OBJECT_ID>2025-301H</OBJECT_ID><CENTER_NAME>EARTH</CENTER_NAME><REF_FRAME>TEME</REF_FRAME><TIME_SYSTEM>UTC</TIME_SYSTEM><MEAN_ELEMENT_THEORY>SGP4</MEAN_ELEMENT_THEORY></metadata><data><meanElements><EPOCH>2026-01-07T19:24:33.705216</EPOCH><MEAN_MOTION>15.35700795</MEAN_MOTION><ECCENTRICITY>.0007893</ECCENTRICITY><INCLINATION>51.8693</INCLINATION><RA_OF_ASC_NODE>359.4634</RA_OF_ASC_NODE><ARG_OF_PERICENTER>168.3925</ARG_OF_PERICENTER><MEAN_ANOMALY>191.7244</MEAN_ANOMALY></meanElements><tleParameters><EPHEMERIS_TYPE>0</EPHEMERIS_TYPE><CLASSIFICATION_TYPE>U</CLASSIFICATION_TYPE><NORAD_CAT_ID>67140</NORAD_CAT_ID><ELEMENT_SET_NO>999</ELEMENT_SET_NO><REV_AT_EPOCH>437</REV_AT_EPOCH><BSTAR>.68905E-3</BSTAR><MEAN_MOTION_DOT>.24004E-3</MEAN_MOTION_DOT><MEAN_MOTION_DDOT>0</MEAN_MOTION_DDOT></tleParameters></data></segment></body></omm>
<omm id="CCSDS_OMM_VERS" version="2.0">
<header><CREATION_DATE/><ORIGINATOR/></header><body><segment><metadata><OBJECT_NAME>KUIPER-00187</OBJECT_NAME><OBJECT_ID>2025-301J</OBJECT_ID><CENTER_NAME>EARTH</CENTER_NAME><REF_FRAME>TEME</REF_FRAME><TIME_SYSTEM>UTC</TIME_SYSTEM><MEAN_ELEMENT_THEORY>SGP4</MEAN_ELEMENT_THEORY></metadata><data><meanElements><EPOCH>2026-01-07T19:08:42.721152</EPOCH><MEAN_MOTION>15.36280141</MEAN_MOTION><ECCENTRICITY>.0004935</ECCENTRICITY><INCLINATION>51.8711</INCLINATION><RA_OF_ASC_NODE>359.3955</RA_OF_ASC_NODE><ARG_OF_PERICENTER>153.7098</ARG_OF_PERICENTER><MEAN_ANOMALY>206.4139</MEAN_ANOMALY></meanElements><tleParameters><EPHEMERIS_TYPE>0</EPHEMERIS_TYPE><CLASSIFICATION_TYPE>U</CLASSIFICATION_TYPE><NORAD_CAT_ID>67141</NORAD_CAT_ID><ELEMENT_SET_NO>999</ELEMENT_SET_NO><REV_AT_EPOCH>437</REV_AT_EPOCH><BSTAR>.40272E-3</BSTAR><MEAN_MOTION_DOT>.14108E-3</MEAN_MOTION_DOT><MEAN_MOTION_DDOT>0</MEAN_MOTION_DDOT></tleParameters></data></segment></body></omm>
<omm id="CCSDS_OMM_VERS" version="2.0">
<header><CREATION_DATE/><ORIGINATOR/></header><body><segment><metadata><OBJECT_NAME>KUIPER-00188</OBJECT_NAME><OBJECT_ID>2025-301K</OBJECT_ID><CENTER_NAME>EARTH</CENTER_NAME><REF_FRAME>TEME</REF_FRAME><TIME_SYSTEM>UTC</TIME_SYSTEM><MEAN_ELEMENT_THEORY>SGP4</MEAN_ELEMENT_THEORY></metadata><data><meanElements><EPOCH>2026-01-07T19:26:37.755744</EPOCH><MEAN_MOTION>15.35556295</MEAN_MOTION><ECCENTRICITY>.0007586</ECCENTRICITY><INCLINATION>51.8706</INCLINATION><RA_OF_ASC_NODE>359.4741</RA_OF_ASC_NODE><ARG_OF_PERICENTER>174.0899</ARG_OF_PERICENTER><MEAN_ANOMALY>186.0177</MEAN_ANOMALY></meanElements><tleParameters><EPHEMERIS_TYPE>0</EPHEMERIS_TYPE><CLASSIFICATION_TYPE>U</CLASSIFICATION_TYPE><NORAD_CAT_ID>67142</NORAD_CAT_ID><ELEMENT_SET_NO>999</ELEMENT_SET_NO><REV_AT_EPOCH>437</REV_AT_EPOCH><BSTAR>.41172E-3</BSTAR><MEAN_MOTION_DOT>.141E-3</MEAN_MOTION_DOT><MEAN_MOTION_DDOT>0</MEAN_MOTION_DDOT></tleParameters></data></segment></body></omm>
<omm id="CCSDS_OMM_VERS" version="2.0">
<header><CREATION_DATE/><ORIGINATOR/></header><body><segment><metadata><OBJECT_NAME>KUIPER-00191</OBJECT_NAME><OBJECT_ID>2025-301L</OBJECT_ID><CENTER_NAME>EARTH</CENTER_NAME><REF_FRAME>TEME</REF_FRAME><TIME_SYSTEM>UTC</TIME_SYSTEM><MEAN_ELEMENT_THEORY>SGP4</MEAN_ELEMENT_THEORY></metadata><data><meanElements><EPOCH>2026-01-07T19:22:31.889856</EPOCH><MEAN_MOTION>15.35714944</MEAN_MOTION><ECCENTRICITY>.0006624</ECCENTRICITY><INCLINATION>51.8681</INCLINATION><RA_OF_ASC_NODE>359.4538</RA_OF_ASC_NODE><ARG_OF_PERICENTER>167.7185</ARG_OF_PERICENTER><MEAN_ANOMALY>192.3964</MEAN_ANOMALY></meanElements><tleParameters><EPHEMERIS_TYPE>0</EPHEMERIS_TYPE><CLASSIFICATION_TYPE>U</CLASSIFICATION_TYPE><NORAD_CAT_ID>67143</NORAD_CAT_ID><ELEMENT_SET_NO>999</ELEMENT_SET_NO><REV_AT_EPOCH>440</REV_AT_EPOCH><BSTAR>.70806E-3</BSTAR><MEAN_MOTION_DOT>.24684E-3</MEAN_MOTION_DOT><MEAN_MOTION_DDOT>0</MEAN_MOTION_DDOT></tleParameters></data></segment></body></omm>
<omm id="CCSDS_OMM_VERS" version="2.0">
<header><CREATION_DATE/><ORIGINATOR/></header><body><segment><metadata><OBJECT_NAME>KUIPER-00196</OBJECT_NAME><OBJECT_ID>2025-301M</OBJECT_ID><CENTER_NAME>EARTH</CENTER_NAME><REF_FRAME>TEME</REF_FRAME><TIME_SYSTEM>UTC</TIME_SYSTEM><MEAN_ELEMENT_THEORY>SGP4</MEAN_ELEMENT_THEORY></metadata><data><meanElements><EPOCH>2026-01-07T19:04:49.843776</EPOCH><MEAN_MOTION>15.36471541</MEAN_MOTION><ECCENTRICITY>.0003873</ECCENTRICITY><INCLINATION>51.8727</INCLINATION><RA_OF_ASC_NODE>359.3777</RA_OF_ASC_NODE><ARG_OF_PERICENTER>130.8346</ARG_OF_PERICENTER><MEAN_ANOMALY>229.2976</MEAN_ANOMALY></meanElements><tleParameters><EPHEMERIS_TYPE>0</EPHEMERIS_TYPE><CLASSIFICATION_TYPE>U</CLASSIFICATION_TYPE><NORAD_CAT_ID>67144</NORAD_CAT_ID><ELEMENT_SET_NO>999</ELEMENT_SET_NO><REV_AT_EPOCH>437</REV_AT_EPOCH><BSTAR>.6877E-3</BSTAR><MEAN_MOTION_DOT>.24549E-3</MEAN_MOTION_DOT><MEAN_MOTION_DDOT>0</MEAN_MOTION_DDOT></tleParameters></data></segment></body></omm>
<omm id="CCSDS_OMM_VERS" version="2.0">
<header><CREATION_DATE/><ORIGINATOR/></header><body><segment><metadata><OBJECT_NAME>KUIPER-00204</OBJECT_NAME><OBJECT_ID>2025-301N</OBJECT_ID><CENTER_NAME>EARTH</CENTER_NAME><REF_FRAME>TEME</REF_FRAME><TIME_SYSTEM>UTC</TIME_SYSTEM><MEAN_ELEMENT_THEORY>SGP4</MEAN_ELEMENT_THEORY></metadata><data><meanElements><EPOCH>2026-01-07T20:00:01.999872</EPOCH><MEAN_MOTION>15.31334875</MEAN_MOTION><ECCENTRICITY>.0004654</ECCENTRICITY><INCLINATION>51.8774</INCLINATION><RA_OF_ASC_NODE>359.2001</RA_OF_ASC_NODE><ARG_OF_PERICENTER>106.7438</ARG_OF_PERICENTER><MEAN_ANOMALY>86.2884</MEAN_ANOMALY></meanElements><tleParameters><EPHEMERIS_TYPE>0</EPHEMERIS_TYPE><CLASSIFICATION_TYPE>U</CLASSIFICATION_TYPE><NORAD_CAT_ID>67145</NORAD_CAT_ID><ELEMENT_SET_NO>999</ELEMENT_SET_NO><REV_AT_EPOCH>448</REV_AT_EPOCH><BSTAR>-.36148E-1</BSTAR><MEAN_MOTION_DOT>-.1022755E-1</MEAN_MOTION_DOT><MEAN_MOTION_DDOT>0</MEAN_MOTION_DDOT></tleParameters></data></segment></body></omm>
<omm id="CCSDS_OMM_VERS" version="2.0">
<header><CREATION_DATE/><ORIGINATOR/></header><body><segment><metadata><OBJECT_NAME>KUIPER-00210</OBJECT_NAME><OBJECT_ID>2025-301P</OBJECT_ID><CENTER_NAME>EARTH</CENTER_NAME><REF_FRAME>TEME</REF_FRAME><TIME_SYSTEM>UTC</TIME_SYSTEM><MEAN_ELEMENT_THEORY>SGP4</MEAN_ELEMENT_THEORY></metadata><data><meanElements><EPOCH>2026-01-07T19:43:13.691136</EPOCH><MEAN_MOTION>15.34701902</MEAN_MOTION><ECCENTRICITY>.0010467</ECCENTRICITY><INCLINATION>51.8619</INCLINATION><RA_OF_ASC_NODE>359.5351</RA_OF_ASC_NODE><ARG_OF_PERICENTER>190.2734</ARG_OF_PERICENTER><MEAN_ANOMALY>169.8039</MEAN_ANOMALY></meanElements><tleParameters><EPHEMERIS_TYPE>0</EPHEMERIS_TYPE><CLASSIFICATION_TYPE>U</CLASSIFICATION_TYPE><NORAD_CAT_ID>67146</NORAD_CAT_ID><ELEMENT_SET_NO>999</ELEMENT_SET_NO><REV_AT_EPOCH>454</REV_AT_EPOCH><BSTAR>.54718E-3</BSTAR><MEAN_MOTION_DOT>.18377E-3</MEAN_MOTION_DOT><MEAN_MOTION_DDOT>0</MEAN_MOTION_DDOT></tleParameters></data></segment></body></omm>
<omm id="CCSDS_OMM_VERS" version="2.0">
<header><CREATION_DATE/><ORIGINATOR/></header><body><segment><metadata><OBJECT_NAME>KUIPER-00221</OBJECT_NAME><OBJECT_ID>2025-301Q</OBJECT_ID><CENTER_NAME>EARTH</CENTER_NAME><REF_FRAME>TEME</REF_FRAME><TIME_SYSTEM>UTC</TIME_SYSTEM><MEAN_ELEMENT_THEORY>SGP4</MEAN_ELEMENT_THEORY></metadata><data><meanElements><EPOCH>2026-01-07T19:10:49.619424</EPOCH><MEAN_MOTION>15.36218488</MEAN_MOTION><ECCENTRICITY>.0004992</ECCENTRICITY><INCLINATION>51.8719</INCLINATION><RA_OF_ASC_NODE>359.4049</RA_OF_ASC_NODE><ARG_OF_PERICENTER>150.0401</ARG_OF_PERICENTER><MEAN_ANOMALY>210.0871</MEAN_ANOMALY></meanElements><tleParameters><EPHEMERIS_TYPE>0</EPHEMERIS_TYPE><CLASSIFICATION_TYPE>U</CLASSIFICATION_TYPE><NORAD_CAT_ID>67147</NORAD_CAT_ID><ELEMENT_SET_NO>999</ELEMENT_SET_NO><REV_AT_EPOCH>437</REV_AT_EPOCH><BSTAR>.38529E-3</BSTAR><MEAN_MOTION_DOT>.13452E-3</MEAN_MOTION_DOT><MEAN_MOTION_DDOT>0</MEAN_MOTION_DDOT></tleParameters></data></segment></body></omm>

</ndm>
